OPTUS-X (ADS-01)        
1 62006U 24212A   26142.54903241 -.00000151  00000+0  00000+0 0  9994
2 62006   0.0118 291.1692 0001323 164.2845 138.7772  1.00271490  5504
GSAT-N2 (GSAT-20)       
1 62028U 24214A   26142.53150682 -.00000027  00000+0  00000+0 0  9994
2 62028   0.0411 252.1873 0001820 166.5063  80.7514  1.00272515  5645
SXM-9                   
1 62259U 24234A   26142.43004781 -.00000213  00000+0  00000+0 0  9996
2 62259   0.0132 332.5380 0005137 337.1569   0.0178  1.00265561  5317
TJS-12                  
1 62374U 24246A   26142.54703906 -.00000240  00000+0  00000+0 0  9994
2 62374   0.7260 296.9435 0002175  67.4811 219.1899  1.00268891  5301
NUVIEW ALPHA            
1 62455U 24252B   26142.50160668 -.00000223  00000+0  00000+0 0  9990
2 62455   0.0613  38.3724 0001361 359.7624 299.4828  1.00265251  3566
AGILA                   
1 62456U 24252C   26142.54816573 -.00000191  00000+0  00000+0 0  9992
2 62456   0.0522 115.6930 0001267 341.2135 132.7701  1.00265808  4908
NUVIEW BRAVO            
1 62457U 24252D   26142.28774175 -.00000223  00000+0  00000+0 0  9991
2 62457   0.0696 136.8441 0001466 326.6592 156.8904  1.00271506  3530
THURAYA-4               
1 62483U 25001A   26142.52682679  .00000131  00000+0  00000+0 0  9994
2 62483   0.0327  80.0191 0000230 215.7292 178.3761  1.00272870  3923
SHIJIAN-25 (SJ-25)      
1 62485U 25002A   26142.68592600 -.00000357  00000+0  00000+0 0  9999
2 62485   5.0551  61.3213 0051859 171.3104  22.0577  1.00272066  5107
TJS-14                  
1 62804U 25017A   26142.52171345  .00000107  00000+0  00000+0 0  9994
2 62804   0.8399 294.0025 0000154 351.8060 160.5283  1.00273348  5015
SPAINSAT NG I           
1 62852U 25021A   26142.09605810  .00000143  00000+0  00000+0 0  9993
2 62852   0.0166 317.0755 0000320 357.8473 348.3790  1.00272654  3721
QZS-6 (MICHIBIKI-6)     
1 62876U 25023A   26142.53601351 -.00000241  00000+0  00000+0 0  9996
2 62876   0.0201 303.4296 0002212 118.6528 101.5692  1.00271660  4695
ZHONGXING-10R           
1 63075U 25036A   26142.53991352 -.00000360  00000+0  00000+0 0  9997
2 63075   0.0137 237.2966 0002697 254.7240  53.0378  1.00270856  4703
TJS-15                  
1 63157U 25045A   26142.53679351 -.00000273  00000+0  00000+0 0  9993
2 63157   0.2791  84.8819 0005695 293.3521 149.5574  1.00274045  4508
TIANLIAN 2-04           
1 63361U 25062A   26142.46261764 -.00000147  00000+0  00000+0 0  9996
2 63361   4.4390 274.8135 0032215  11.1667 200.7490  1.00271294  4345
TJS-16                  
1 63397U 25064A   26142.69242602 -.00000113  00000+0  00000+0 0  9995
2 63397   1.0346  81.5612 0004098 284.9221 283.6657  1.00272139  4136
TJS-17                  
1 63524U 25073A   26142.69320602 -.00000078  00000+0  00000+0 0  9994
2 63524   1.0003  82.8645 0002833 287.5274 283.9801  1.00271141  4035
TIANLIAN 2-05           
1 63662U 25084A   26142.52206012  .00000112  00000+0  00000+0 0  9997
2 63662   4.5148 280.1345 0003395 130.1716  38.1229  1.00271429  4127
TJS-19                  
1 63924U 25097A   26142.68861266 -.00000287  00000+0  00000+0 0  9991
2 63924   3.3289 317.0529 0001611 261.6663  50.7053  1.00276378  3880
CHINASAT 3B             
1 64062U 25106A   26140.91138218 -.00000051  00000+0  00000+0 0  9993
2 64062   0.0282  64.9938 0001963  26.5079 282.4761  1.00273280  3780
SXM-10                  
1 64290U 25122A   26142.41760209 -.00000025  00000+0  00000+0 0  9993
2 64290   0.0258  32.6054 0001821 336.0556 265.5580  1.00271825  3424
CHINASAT 9C             
1 64470U 25132A   26142.39373677 -.00000255  00000+0  00000+0 0  9995
2 64470   0.0081 322.6198 0002716  91.4305  59.9049  1.00269757  3894
MTG-S1                  
1 64723U 25143A   26142.58863926 -.00000040  00000+0  00000+0 0  9992
2 64723   0.6268 333.7493 0001504  17.9263  97.0288  1.00269175  3161
DROR 1                  
1 64784U 25148A   26142.58846593 -.00000042  00000+0  00000+0 0  9997
2 64784   0.0431  78.7181 0003152 299.7935  69.5456  1.00271319  3042
SHIYAN-29               
1 65486U 25196A   26141.61000700 -.00000283  00000+0  00000+0 0  9992
2 65486  28.7939  18.8719 0010143 174.6707   0.3382  1.00263304  2618
TJS-20                  
1 66142U 25238A   26142.38784341  .00000010  00000+0  00000+0 0  9991
2 66142   5.5261 299.6666 0004449 145.0587 357.3858  1.00275294  2073
CMS-03 (GSAT-7R)        
1 66311U 25249B   26142.53272015 -.00000085  00000+0  00000+0 0  9991
2 66311   0.0112 130.5479 0002357 267.1884 108.1704  1.00271616  2091
VIASAT-3 F2             
1 66454U 25261A   26142.07469126 -.00000242  00000+0  00000+0 0  9998
2 66454   0.0254 222.6442 0000733 178.1019 146.8803  1.00273496  2532
SHIJIAN-28 (SJ-28)      
1 66549U 25277A   26142.39859013 -.00000372  00000+0  00000+0 0  9997
2 66549   4.6034 272.5460 0001047  25.0809 202.6978  1.00277372  1892
TJS-22                  
1 66990U 25290A   26141.94532502 -.00000017  00000+0  00000+0 0  9999
2 66990   1.5926 286.2489 0001830 349.1799  10.9903  1.00274164  1769
TJS-23                  
1 67226U 25306A   26141.67440908  .00000004  00000+0  00000+0 0  9993
2 67226   5.6483 297.6258 0004703 153.8361 206.1726  1.00268921  1623
FENGYUN 4C              
1 67246U 25312A   26142.54443905 -.00000331  00000+0  00000+0 0  9993
2 67246   0.0367 122.7560 0000469  49.1202  37.2918  1.00270801  1520
SHIJIAN-29A (SJ-29A)    
1 67302U 25315A   26142.53263347 -.00000081  00000+0  00000+0 0  9990
2 67302   3.3344  95.7207 0002792 331.3252  78.6728  1.00275287  1366
SHIJIAN-29B (SJ-29B)    
1 67403U 25315C   26142.53272014 -.00000082  00000+0  00000+0 0  9994
2 67403   3.3336  95.7160 0007267 350.1565  59.9567  1.00275722  1430
ELEKTRO-L 5             
1 67756U 26028A   26142.12272503 -.00000106  00000+0  00000+0 0  9992
2 67756   0.3030 303.0843 0001430 181.1280 235.7968  1.00271407   999
JAM-E JAM 1             
1 67757U 26028B   26142.23963168  .00000147  00000+0  00000+0 0  9993
2 67757   0.3155 295.8996 0000848 246.6144 177.6188  1.00278087   868
ECHOSTAR 25             
1 68126U 26045A   26141.99718119 -.00000065  00000+0  00000+0 0  9999
2 68126   0.0316  63.9708 0000931 344.9687  79.6733  1.00272679   731
